<?xml version="1.0" encoding="UTF-8"?>
<gpx creator="https://gpx.studio" version="1.1" xmlns="http://www.topografix.com/GPX/1/1" xmlns:xsi="http://www.w3.org/2001/XMLSchema-instance" xsi:schemaLocation="http://www.topografix.com/GPX/1/1 http://www.topografix.com/GPX/1/1/gpx.xsd http://www.garmin.com/xmlschemas/GpxExtensions/v3 http://www.garmin.com/xmlschemas/GpxExtensionsv3.xsd http://www.garmin.com/xmlschemas/TrackPointExtension/v1 http://www.garmin.com/xmlschemas/TrackPointExtensionv1.xsd http://www.garmin.com/xmlschemas/PowerExtension/v1 http://www.garmin.com/xmlschemas/PowerExtensionv1.xsd http://www.topografix.com/GPX/gpx_style/0/2 http://www.topografix.com/GPX/gpx_style/0/2/gpx_style.xsd" xmlns:gpxtpx="http://www.garmin.com/xmlschemas/TrackPointExtension/v1" xmlns:gpxx="http://www.garmin.com/xmlschemas/GpxExtensions/v3" xmlns:gpxpx="http://www.garmin.com/xmlschemas/PowerExtension/v1" xmlns:gpx_style="http://www.topografix.com/GPX/gpx_style/0/2">
  <metadata>
    <name>2. Braddon and bento</name>
    <author>
      <name>gpx.studio</name>
      <link href="https://gpx.studio"/>
    </author>
  </metadata>
  <trk>
    <name>2. Braddon and bento</name>
    <trkseg>
      <trkpt lat="-35.261587" lon="149.131644">
        <ele>569.79</ele>
      </trkpt>
      <trkpt lat="-35.260813" lon="149.131771">
        <ele>569.75</ele>
      </trkpt>
      <trkpt lat="-35.260762" lon="149.13178">
        <ele>569.8</ele>
      </trkpt>
      <trkpt lat="-35.260702" lon="149.131758">
        <ele>569.67</ele>
      </trkpt>
      <trkpt lat="-35.260652" lon="149.131723">
        <ele>569.46</ele>
      </trkpt>
      <trkpt lat="-35.260646" lon="149.131732">
        <ele>569.52</ele>
      </trkpt>
      <trkpt lat="-35.26062" lon="149.131776">
        <ele>569.77</ele>
      </trkpt>
      <trkpt lat="-35.260605" lon="149.131806">
        <ele>569.94</ele>
      </trkpt>
      <trkpt lat="-35.260353" lon="149.131848">
        <ele>570</ele>
      </trkpt>
      <trkpt lat="-35.260346" lon="149.132091">
        <ele>570.6</ele>
      </trkpt>
      <trkpt lat="-35.260312" lon="149.132098">
        <ele>570.65</ele>
      </trkpt>
      <trkpt lat="-35.260322" lon="149.132217">
        <ele>571.34</ele>
      </trkpt>
      <trkpt lat="-35.260369" lon="149.132216">
        <ele>571.33</ele>
      </trkpt>
      <trkpt lat="-35.260442" lon="149.132449">
        <ele>571.83</ele>
      </trkpt>
      <trkpt lat="-35.260419" lon="149.132544">
        <ele>572.15</ele>
      </trkpt>
      <trkpt lat="-35.26044" lon="149.132583">
        <ele>572.22</ele>
      </trkpt>
      <trkpt lat="-35.26045" lon="149.132625">
        <ele>572.29</ele>
      </trkpt>
      <trkpt lat="-35.260494" lon="149.132979">
        <ele>573.87</ele>
      </trkpt>
      <trkpt lat="-35.260442" lon="149.133061">
        <ele>574.47</ele>
      </trkpt>
      <trkpt lat="-35.26048" lon="149.133369">
        <ele>575</ele>
      </trkpt>
      <trkpt lat="-35.26048" lon="149.133369">
        <ele>575.2841974177728</ele>
      </trkpt>
      <trkpt lat="-35.260455898888665" lon="149.13354097350856">
        <ele>575.9542537374018</ele>
      </trkpt>
      <trkpt lat="-35.260448" lon="149.133544">
        <ele>575.46</ele>
      </trkpt>
      <trkpt lat="-35.260451" lon="149.13356">
        <ele>575.48</ele>
      </trkpt>
      <trkpt lat="-35.260439" lon="149.133696">
        <ele>575.97</ele>
      </trkpt>
      <trkpt lat="-35.260464" lon="149.133924">
        <ele>577.08</ele>
      </trkpt>
      <trkpt lat="-35.260459" lon="149.13394">
        <ele>577.12</ele>
      </trkpt>
      <trkpt lat="-35.260446" lon="149.133951">
        <ele>577.18</ele>
      </trkpt>
      <trkpt lat="-35.260226" lon="149.13399">
        <ele>577.65</ele>
      </trkpt>
      <trkpt lat="-35.260085" lon="149.134065">
        <ele>577.99</ele>
      </trkpt>
      <trkpt lat="-35.259917" lon="149.134175">
        <ele>577.78</ele>
      </trkpt>
      <trkpt lat="-35.259877" lon="149.134185">
        <ele>577.89</ele>
      </trkpt>
      <trkpt lat="-35.259881" lon="149.134222">
        <ele>578</ele>
      </trkpt>
      <trkpt lat="-35.259885" lon="149.134263">
        <ele>578</ele>
      </trkpt>
      <trkpt lat="-35.259885" lon="149.134263">
        <ele>578</ele>
      </trkpt>
      <trkpt lat="-35.259908" lon="149.1345">
        <ele>578</ele>
      </trkpt>
      <trkpt lat="-35.259816" lon="149.134476">
        <ele>578</ele>
      </trkpt>
      <trkpt lat="-35.259646" lon="149.134388">
        <ele>577.04</ele>
      </trkpt>
      <trkpt lat="-35.259286" lon="149.13522">
        <ele>577</ele>
      </trkpt>
      <trkpt lat="-35.259164" lon="149.135478">
        <ele>576.31</ele>
      </trkpt>
      <trkpt lat="-35.259118" lon="149.135539">
        <ele>576.04</ele>
      </trkpt>
      <trkpt lat="-35.259083" lon="149.135566">
        <ele>576</ele>
      </trkpt>
      <trkpt lat="-35.25933" lon="149.135969">
        <ele>576</ele>
      </trkpt>
      <trkpt lat="-35.25938" lon="149.136394">
        <ele>575.37</ele>
      </trkpt>
      <trkpt lat="-35.259384" lon="149.136393">
        <ele>575.38</ele>
      </trkpt>
      <trkpt lat="-35.259384" lon="149.136394">
        <ele>575.38</ele>
      </trkpt>
      <trkpt lat="-35.259176" lon="149.136421">
        <ele>575</ele>
      </trkpt>
      <trkpt lat="-35.258897" lon="149.136559">
        <ele>574</ele>
      </trkpt>
      <trkpt lat="-35.258686" lon="149.136708">
        <ele>574</ele>
      </trkpt>
      <trkpt lat="-35.258507" lon="149.136893">
        <ele>574</ele>
      </trkpt>
      <trkpt lat="-35.258343" lon="149.137128">
        <ele>574</ele>
      </trkpt>
      <trkpt lat="-35.258184" lon="149.13742">
        <ele>574.32</ele>
      </trkpt>
      <trkpt lat="-35.257947" lon="149.137986">
        <ele>575</ele>
      </trkpt>
      <trkpt lat="-35.258172" lon="149.138134">
        <ele>575</ele>
      </trkpt>
      <trkpt lat="-35.259036" lon="149.1387">
        <ele>576</ele>
      </trkpt>
      <trkpt lat="-35.259177" lon="149.138844">
        <ele>576</ele>
      </trkpt>
      <trkpt lat="-35.259707" lon="149.139179">
        <ele>576</ele>
      </trkpt>
      <trkpt lat="-35.259707" lon="149.139178">
        <ele>576</ele>
      </trkpt>
      <trkpt lat="-35.259746" lon="149.139203">
        <ele>576</ele>
      </trkpt>
      <trkpt lat="-35.259708" lon="149.139288">
        <ele>576.45</ele>
      </trkpt>
      <trkpt lat="-35.259883" lon="149.139369">
        <ele>576.92</ele>
      </trkpt>
      <trkpt lat="-35.259979" lon="149.139385">
        <ele>577</ele>
      </trkpt>
      <trkpt lat="-35.260095" lon="149.139386">
        <ele>577</ele>
      </trkpt>
      <trkpt lat="-35.261405" lon="149.13918">
        <ele>576</ele>
      </trkpt>
      <trkpt lat="-35.261426" lon="149.13933">
        <ele>576.32</ele>
      </trkpt>
      <trkpt lat="-35.263536" lon="149.138991">
        <ele>577</ele>
      </trkpt>
      <trkpt lat="-35.263619" lon="149.13896">
        <ele>577</ele>
      </trkpt>
      <trkpt lat="-35.26382" lon="149.138827">
        <ele>577</ele>
      </trkpt>
      <trkpt lat="-35.263885" lon="149.138764">
        <ele>577</ele>
      </trkpt>
      <trkpt lat="-35.264208" lon="149.1392">
        <ele>578</ele>
      </trkpt>
      <trkpt lat="-35.264298" lon="149.140041">
        <ele>579.01</ele>
      </trkpt>
      <trkpt lat="-35.264298" lon="149.140041">
        <ele>579.01</ele>
      </trkpt>
      <trkpt lat="-35.264293" lon="149.139992">
        <ele>579</ele>
      </trkpt>
      <trkpt lat="-35.26451" lon="149.139954">
        <ele>579.16</ele>
      </trkpt>
      <trkpt lat="-35.2646" lon="149.139928">
        <ele>579.17</ele>
      </trkpt>
      <trkpt lat="-35.264686" lon="149.139875">
        <ele>579</ele>
      </trkpt>
      <trkpt lat="-35.264738" lon="149.139825">
        <ele>579.07</ele>
      </trkpt>
      <trkpt lat="-35.264817" lon="149.139714">
        <ele>579</ele>
      </trkpt>
      <trkpt lat="-35.265488" lon="149.13799">
        <ele>578</ele>
      </trkpt>
      <trkpt lat="-35.26551" lon="149.138003">
        <ele>578</ele>
      </trkpt>
      <trkpt lat="-35.265529" lon="149.13798">
        <ele>578</ele>
      </trkpt>
      <trkpt lat="-35.265652" lon="149.138048">
        <ele>578</ele>
      </trkpt>
      <trkpt lat="-35.265756" lon="149.13798">
        <ele>578</ele>
      </trkpt>
      <trkpt lat="-35.265859" lon="149.137707">
        <ele>578</ele>
      </trkpt>
      <trkpt lat="-35.265891" lon="149.137545">
        <ele>578</ele>
      </trkpt>
      <trkpt lat="-35.265959" lon="149.137512">
        <ele>578</ele>
      </trkpt>
      <trkpt lat="-35.26597" lon="149.137551">
        <ele>578</ele>
      </trkpt>
      <trkpt lat="-35.266081" lon="149.137615">
        <ele>578</ele>
      </trkpt>
      <trkpt lat="-35.266081" lon="149.137615">
        <ele>578</ele>
      </trkpt>
      <trkpt lat="-35.26828" lon="149.138885">
        <ele>579</ele>
      </trkpt>
      <trkpt lat="-35.2685" lon="149.139013">
        <ele>579</ele>
      </trkpt>
      <trkpt lat="-35.26856" lon="149.13896">
        <ele>579</ele>
      </trkpt>
      <trkpt lat="-35.268615" lon="149.138912">
        <ele>579</ele>
      </trkpt>
      <trkpt lat="-35.268681" lon="149.138797">
        <ele>578.47</ele>
      </trkpt>
      <trkpt lat="-35.268949" lon="149.138095">
        <ele>577.06</ele>
      </trkpt>
      <trkpt lat="-35.269531" lon="149.136649">
        <ele>576.25</ele>
      </trkpt>
      <trkpt lat="-35.269829" lon="149.135885">
        <ele>576</ele>
      </trkpt>
      <trkpt lat="-35.269928" lon="149.135609">
        <ele>575.06</ele>
      </trkpt>
      <trkpt lat="-35.270536" lon="149.134992">
        <ele>574.43</ele>
      </trkpt>
      <trkpt lat="-35.270694" lon="149.134831">
        <ele>574.25</ele>
      </trkpt>
      <trkpt lat="-35.270781" lon="149.134818">
        <ele>574</ele>
      </trkpt>
      <trkpt lat="-35.270777" lon="149.134784">
        <ele>574</ele>
      </trkpt>
      <trkpt lat="-35.270809" lon="149.134612">
        <ele>574</ele>
      </trkpt>
      <trkpt lat="-35.270825" lon="149.134582">
        <ele>574</ele>
      </trkpt>
      <trkpt lat="-35.270887" lon="149.134552">
        <ele>574</ele>
      </trkpt>
      <trkpt lat="-35.270862" lon="149.134365">
        <ele>574</ele>
      </trkpt>
      <trkpt lat="-35.272289" lon="149.134143">
        <ele>572</ele>
      </trkpt>
      <trkpt lat="-35.273325" lon="149.133967">
        <ele>571</ele>
      </trkpt>
      <trkpt lat="-35.273305" lon="149.133794">
        <ele>571</ele>
      </trkpt>
      <trkpt lat="-35.273219" lon="149.133009">
        <ele>571</ele>
      </trkpt>
      <trkpt lat="-35.273195" lon="149.132961">
        <ele>571</ele>
      </trkpt>
      <trkpt lat="-35.273157" lon="149.132951">
        <ele>571</ele>
      </trkpt>
      <trkpt lat="-35.273116" lon="149.132647">
        <ele>571</ele>
      </trkpt>
      <trkpt lat="-35.272381" lon="149.132767">
        <ele>571.26</ele>
      </trkpt>
      <trkpt lat="-35.272362" lon="149.132586">
        <ele>571.24</ele>
      </trkpt>
      <trkpt lat="-35.272381" lon="149.132767">
        <ele>571.26</ele>
      </trkpt>
      <trkpt lat="-35.271744" lon="149.13287">
        <ele>571.99</ele>
      </trkpt>
      <trkpt lat="-35.271772" lon="149.133176">
        <ele>572</ele>
      </trkpt>
      <trkpt lat="-35.271011" lon="149.1333">
        <ele>572</ele>
      </trkpt>
      <trkpt lat="-35.270572" lon="149.133372">
        <ele>572.69</ele>
      </trkpt>
      <trkpt lat="-35.270505" lon="149.133336">
        <ele>572.16</ele>
      </trkpt>
      <trkpt lat="-35.270361" lon="149.133294">
        <ele>572</ele>
      </trkpt>
      <trkpt lat="-35.27033877821986" lon="149.1331569181656">
        <ele>572.195826488736</ele>
      </trkpt>
      <trkpt lat="-35.27025" lon="149.132617">
        <ele>571.3376722404035</ele>
      </trkpt>
      <trkpt lat="-35.270133" lon="149.132513">
        <ele>571</ele>
      </trkpt>
      <trkpt lat="-35.27002" lon="149.132445">
        <ele>570.66</ele>
      </trkpt>
      <trkpt lat="-35.269884" lon="149.132295">
        <ele>570.23</ele>
      </trkpt>
      <trkpt lat="-35.269826" lon="149.132269">
        <ele>570.64</ele>
      </trkpt>
      <trkpt lat="-35.269755" lon="149.132215">
        <ele>571</ele>
      </trkpt>
      <trkpt lat="-35.269674" lon="149.132128">
        <ele>571</ele>
      </trkpt>
      <trkpt lat="-35.269662" lon="149.132025">
        <ele>571</ele>
      </trkpt>
      <trkpt lat="-35.269565" lon="149.132034">
        <ele>571.14</ele>
      </trkpt>
      <trkpt lat="-35.269203" lon="149.132091">
        <ele>572.61</ele>
      </trkpt>
      <trkpt lat="-35.26915" lon="149.132099">
        <ele>572.81</ele>
      </trkpt>
      <trkpt lat="-35.269082" lon="149.132104">
        <ele>572.98</ele>
      </trkpt>
      <trkpt lat="-35.268997" lon="149.132081">
        <ele>573.3</ele>
      </trkpt>
      <trkpt lat="-35.268939" lon="149.132076">
        <ele>573.49</ele>
      </trkpt>
      <trkpt lat="-35.266773" lon="149.132423">
        <ele>573.35</ele>
      </trkpt>
      <trkpt lat="-35.265971" lon="149.13256">
        <ele>573</ele>
      </trkpt>
      <trkpt lat="-35.265971" lon="149.132565">
        <ele>573</ele>
      </trkpt>
      <trkpt lat="-35.265885" lon="149.131726">
        <ele>571.48</ele>
      </trkpt>
      <trkpt lat="-35.265563" lon="149.131766">
        <ele>571</ele>
      </trkpt>
      <trkpt lat="-35.265526" lon="149.131798">
        <ele>571</ele>
      </trkpt>
      <trkpt lat="-35.265513" lon="149.131663">
        <ele>571</ele>
      </trkpt>
      <trkpt lat="-35.265512" lon="149.131655">
        <ele>571</ele>
      </trkpt>
      <trkpt lat="-35.265438" lon="149.131667">
        <ele>571</ele>
      </trkpt>
      <trkpt lat="-35.263925" lon="149.131914">
        <ele>570</ele>
      </trkpt>
      <trkpt lat="-35.263899" lon="149.131664">
        <ele>570</ele>
      </trkpt>
      <trkpt lat="-35.263937" lon="149.131659">
        <ele>570</ele>
      </trkpt>
      <trkpt lat="-35.263935" lon="149.131634">
        <ele>570</ele>
      </trkpt>
      <trkpt lat="-35.263896" lon="149.13164">
        <ele>570</ele>
      </trkpt>
      <trkpt lat="-35.263884" lon="149.131522">
        <ele>570</ele>
      </trkpt>
      <trkpt lat="-35.263836" lon="149.131529">
        <ele>570</ele>
      </trkpt>
      <trkpt lat="-35.263834" lon="149.131507">
        <ele>570</ele>
      </trkpt>
      <trkpt lat="-35.263881" lon="149.1315">
        <ele>570</ele>
      </trkpt>
      <trkpt lat="-35.263858" lon="149.131277">
        <ele>570</ele>
      </trkpt>
      <trkpt lat="-35.263863" lon="149.131276">
        <ele>570</ele>
      </trkpt>
      <trkpt lat="-35.261717" lon="149.131623">
        <ele>569.95</ele>
      </trkpt>
    </trkseg>
  </trk>
</gpx>
