<?xml version="1.0" encoding="UTF-8"?>
<gpx creator="https://gpx.studio" version="1.1" xmlns="http://www.topografix.com/GPX/1/1" xmlns:xsi="http://www.w3.org/2001/XMLSchema-instance" xsi:schemaLocation="http://www.topografix.com/GPX/1/1 http://www.topografix.com/GPX/1/1/gpx.xsd http://www.garmin.com/xmlschemas/GpxExtensions/v3 http://www.garmin.com/xmlschemas/GpxExtensionsv3.xsd http://www.garmin.com/xmlschemas/TrackPointExtension/v1 http://www.garmin.com/xmlschemas/TrackPointExtensionv1.xsd http://www.garmin.com/xmlschemas/PowerExtension/v1 http://www.garmin.com/xmlschemas/PowerExtensionv1.xsd http://www.topografix.com/GPX/gpx_style/0/2 http://www.topografix.com/GPX/gpx_style/0/2/gpx_style.xsd" xmlns:gpxtpx="http://www.garmin.com/xmlschemas/TrackPointExtension/v1" xmlns:gpxx="http://www.garmin.com/xmlschemas/GpxExtensions/v3" xmlns:gpxpx="http://www.garmin.com/xmlschemas/PowerExtension/v1" xmlns:gpx_style="http://www.topografix.com/GPX/gpx_style/0/2">
  <metadata>
    <name>4. Lynham and Tilleys</name>
    <author>
      <name>gpx.studio</name>
      <link href="https://gpx.studio"/>
    </author>
  </metadata>
  <trk>
    <name>4. Lynham and Tilleys</name>
    <trkseg>
      <trkpt lat="-35.261269" lon="149.130585">
        <ele>568.01</ele>
      </trkpt>
      <trkpt lat="-35.261204" lon="149.130616">
        <ele>568.03</ele>
      </trkpt>
      <trkpt lat="-35.2611" lon="149.130649">
        <ele>568.05</ele>
      </trkpt>
      <trkpt lat="-35.260488" lon="149.13075">
        <ele>568</ele>
      </trkpt>
      <trkpt lat="-35.260474" lon="149.130711">
        <ele>568</ele>
      </trkpt>
      <trkpt lat="-35.260452" lon="149.130509">
        <ele>568</ele>
      </trkpt>
      <trkpt lat="-35.260458" lon="149.130481">
        <ele>568</ele>
      </trkpt>
      <trkpt lat="-35.260292" lon="149.128968">
        <ele>567.45</ele>
      </trkpt>
      <trkpt lat="-35.260279" lon="149.128848">
        <ele>567.25</ele>
      </trkpt>
      <trkpt lat="-35.260177" lon="149.127869">
        <ele>567</ele>
      </trkpt>
      <trkpt lat="-35.260147" lon="149.127796">
        <ele>566.92</ele>
      </trkpt>
      <trkpt lat="-35.260108" lon="149.127473">
        <ele>567</ele>
      </trkpt>
      <trkpt lat="-35.260022" lon="149.126077">
        <ele>567</ele>
      </trkpt>
      <trkpt lat="-35.260011" lon="149.125794">
        <ele>567</ele>
      </trkpt>
      <trkpt lat="-35.259702" lon="149.125832">
        <ele>567</ele>
      </trkpt>
      <trkpt lat="-35.259418" lon="149.123193">
        <ele>570</ele>
      </trkpt>
      <trkpt lat="-35.259261" lon="149.12311">
        <ele>569.12</ele>
      </trkpt>
      <trkpt lat="-35.259015" lon="149.123022">
        <ele>569.55</ele>
      </trkpt>
      <trkpt lat="-35.25869" lon="149.122708">
        <ele>570</ele>
      </trkpt>
      <trkpt lat="-35.2586" lon="149.122633">
        <ele>570</ele>
      </trkpt>
      <trkpt lat="-35.258523" lon="149.122539">
        <ele>570.08</ele>
      </trkpt>
      <trkpt lat="-35.258085" lon="149.121983">
        <ele>571</ele>
      </trkpt>
      <trkpt lat="-35.257977" lon="149.121703">
        <ele>571.01</ele>
      </trkpt>
      <trkpt lat="-35.257536" lon="149.120936">
        <ele>572</ele>
      </trkpt>
      <trkpt lat="-35.257421" lon="149.120712">
        <ele>572.01</ele>
      </trkpt>
      <trkpt lat="-35.257385" lon="149.120519">
        <ele>572.23</ele>
      </trkpt>
      <trkpt lat="-35.257473" lon="149.120006">
        <ele>573</ele>
      </trkpt>
      <trkpt lat="-35.257493" lon="149.119703">
        <ele>573.46</ele>
      </trkpt>
      <trkpt lat="-35.257504" lon="149.119226">
        <ele>574.51</ele>
      </trkpt>
      <trkpt lat="-35.25753" lon="149.119122">
        <ele>574.84</ele>
      </trkpt>
      <trkpt lat="-35.257448" lon="149.119033">
        <ele>575</ele>
      </trkpt>
      <trkpt lat="-35.257442" lon="149.118915">
        <ele>575</ele>
      </trkpt>
      <trkpt lat="-35.257403" lon="149.1188">
        <ele>575.71</ele>
      </trkpt>
      <trkpt lat="-35.257414" lon="149.118636">
        <ele>575.98</ele>
      </trkpt>
      <trkpt lat="-35.257471" lon="149.118456">
        <ele>576</ele>
      </trkpt>
      <trkpt lat="-35.257552" lon="149.118346">
        <ele>576</ele>
      </trkpt>
      <trkpt lat="-35.257555" lon="149.118209">
        <ele>576</ele>
      </trkpt>
      <trkpt lat="-35.257555" lon="149.118209">
        <ele>576</ele>
      </trkpt>
      <trkpt lat="-35.257558" lon="149.118055">
        <ele>576</ele>
      </trkpt>
      <trkpt lat="-35.257548" lon="149.117654">
        <ele>576.38</ele>
      </trkpt>
      <trkpt lat="-35.257579" lon="149.117203">
        <ele>577</ele>
      </trkpt>
      <trkpt lat="-35.257668" lon="149.116968">
        <ele>578</ele>
      </trkpt>
      <trkpt lat="-35.257766" lon="149.116659">
        <ele>578.06</ele>
      </trkpt>
      <trkpt lat="-35.257861" lon="149.116218">
        <ele>578.95</ele>
      </trkpt>
      <trkpt lat="-35.257869" lon="149.116204">
        <ele>578.6705817122013</ele>
      </trkpt>
      <trkpt lat="-35.2576612397045" lon="149.11597166604207">
        <ele>579.778504694126</ele>
      </trkpt>
      <trkpt lat="-35.25765" lon="149.115969">
        <ele>580.48</ele>
      </trkpt>
      <trkpt lat="-35.257687" lon="149.115696">
        <ele>581.8</ele>
      </trkpt>
      <trkpt lat="-35.256938" lon="149.115818">
        <ele>584.01</ele>
      </trkpt>
      <trkpt lat="-35.256693" lon="149.115836">
        <ele>583.9</ele>
      </trkpt>
      <trkpt lat="-35.254735" lon="149.115863">
        <ele>585.77</ele>
      </trkpt>
      <trkpt lat="-35.254474" lon="149.115898">
        <ele>586.52</ele>
      </trkpt>
      <trkpt lat="-35.254377" lon="149.115929">
        <ele>586.36</ele>
      </trkpt>
      <trkpt lat="-35.253717" lon="149.116216">
        <ele>586.26</ele>
      </trkpt>
      <trkpt lat="-35.253326" lon="149.116387">
        <ele>587.13</ele>
      </trkpt>
      <trkpt lat="-35.253092" lon="149.116521">
        <ele>588</ele>
      </trkpt>
      <trkpt lat="-35.252212" lon="149.117139">
        <ele>588.96</ele>
      </trkpt>
      <trkpt lat="-35.252335" lon="149.118091">
        <ele>584.96</ele>
      </trkpt>
      <trkpt lat="-35.252284" lon="149.118125">
        <ele>584.78</ele>
      </trkpt>
      <trkpt lat="-35.252551" lon="149.120286">
        <ele>578.01</ele>
      </trkpt>
      <trkpt lat="-35.252814" lon="149.122321">
        <ele>574.04</ele>
      </trkpt>
      <trkpt lat="-35.252716" lon="149.122412">
        <ele>574</ele>
      </trkpt>
      <trkpt lat="-35.252602" lon="149.122535">
        <ele>574</ele>
      </trkpt>
      <trkpt lat="-35.252439" lon="149.122736">
        <ele>573.88</ele>
      </trkpt>
      <trkpt lat="-35.251857" lon="149.123662">
        <ele>573.24</ele>
      </trkpt>
      <trkpt lat="-35.252047" lon="149.123865">
        <ele>573</ele>
      </trkpt>
      <trkpt lat="-35.252053" lon="149.123907">
        <ele>572.98</ele>
      </trkpt>
      <trkpt lat="-35.251901" lon="149.124118">
        <ele>572.21</ele>
      </trkpt>
      <trkpt lat="-35.251979" lon="149.124192">
        <ele>572.14</ele>
      </trkpt>
      <trkpt lat="-35.252139" lon="149.124344">
        <ele>572</ele>
      </trkpt>
      <trkpt lat="-35.251757" lon="149.124955">
        <ele>571</ele>
      </trkpt>
      <trkpt lat="-35.251773" lon="149.125018">
        <ele>571</ele>
      </trkpt>
      <trkpt lat="-35.252174" lon="149.125403">
        <ele>570</ele>
      </trkpt>
      <trkpt lat="-35.252131" lon="149.125476">
        <ele>570</ele>
      </trkpt>
      <trkpt lat="-35.252465" lon="149.125787">
        <ele>570</ele>
      </trkpt>
      <trkpt lat="-35.252398" lon="149.125897">
        <ele>569.56</ele>
      </trkpt>
      <trkpt lat="-35.252485" lon="149.125977">
        <ele>569.89</ele>
      </trkpt>
      <trkpt lat="-35.252548" lon="149.126002">
        <ele>570</ele>
      </trkpt>
      <trkpt lat="-35.252563" lon="149.126043">
        <ele>570</ele>
      </trkpt>
      <trkpt lat="-35.252671" lon="149.126532">
        <ele>569.49</ele>
      </trkpt>
      <trkpt lat="-35.252807" lon="149.127146">
        <ele>568.85</ele>
      </trkpt>
      <trkpt lat="-35.252812" lon="149.127221">
        <ele>568.56</ele>
      </trkpt>
      <trkpt lat="-35.252797" lon="149.127319">
        <ele>568.13</ele>
      </trkpt>
      <trkpt lat="-35.252831" lon="149.127401">
        <ele>567.66</ele>
      </trkpt>
      <trkpt lat="-35.252871" lon="149.127387">
        <ele>567.74</ele>
      </trkpt>
      <trkpt lat="-35.252889" lon="149.127474">
        <ele>567.24</ele>
      </trkpt>
      <trkpt lat="-35.252915" lon="149.127615">
        <ele>567.55</ele>
      </trkpt>
      <trkpt lat="-35.253205" lon="149.12922">
        <ele>570</ele>
      </trkpt>
      <trkpt lat="-35.253272" lon="149.129428">
        <ele>570</ele>
      </trkpt>
      <trkpt lat="-35.25372" lon="149.130273">
        <ele>569</ele>
      </trkpt>
      <trkpt lat="-35.253774" lon="149.130308">
        <ele>569</ele>
      </trkpt>
      <trkpt lat="-35.253841" lon="149.130434">
        <ele>569</ele>
      </trkpt>
      <trkpt lat="-35.253875" lon="149.130482">
        <ele>569</ele>
      </trkpt>
      <trkpt lat="-35.254032" lon="149.130813">
        <ele>568.1</ele>
      </trkpt>
      <trkpt lat="-35.254199" lon="149.130472">
        <ele>566.73</ele>
      </trkpt>
      <trkpt lat="-35.254282" lon="149.130342">
        <ele>567.45</ele>
      </trkpt>
      <trkpt lat="-35.254396" lon="149.130251">
        <ele>567.17</ele>
      </trkpt>
      <trkpt lat="-35.254604" lon="149.130066">
        <ele>568.17</ele>
      </trkpt>
      <trkpt lat="-35.254704" lon="149.13005">
        <ele>567.58</ele>
      </trkpt>
      <trkpt lat="-35.254653" lon="149.130057">
        <ele>567.91</ele>
      </trkpt>
      <trkpt lat="-35.254679" lon="149.130256">
        <ele>567.9</ele>
      </trkpt>
      <trkpt lat="-35.254736" lon="149.130376">
        <ele>568.06</ele>
      </trkpt>
      <trkpt lat="-35.254752" lon="149.130429">
        <ele>568.13</ele>
      </trkpt>
      <trkpt lat="-35.25477" lon="149.130576">
        <ele>568.32</ele>
      </trkpt>
      <trkpt lat="-35.254832" lon="149.130785">
        <ele>568.59</ele>
      </trkpt>
      <trkpt lat="-35.254852" lon="149.130935">
        <ele>568.73</ele>
      </trkpt>
      <trkpt lat="-35.25492" lon="149.130857">
        <ele>568.08</ele>
      </trkpt>
      <trkpt lat="-35.25494" lon="149.130844">
        <ele>568.07</ele>
      </trkpt>
      <trkpt lat="-35.255044" lon="149.13082">
        <ele>568.41</ele>
      </trkpt>
      <trkpt lat="-35.255114" lon="149.130838">
        <ele>568.44</ele>
      </trkpt>
      <trkpt lat="-35.255154" lon="149.130864">
        <ele>568.53</ele>
      </trkpt>
      <trkpt lat="-35.255211" lon="149.130885">
        <ele>568.59</ele>
      </trkpt>
      <trkpt lat="-35.25527" lon="149.130882">
        <ele>568.57</ele>
      </trkpt>
      <trkpt lat="-35.255349" lon="149.13085">
        <ele>568.12</ele>
      </trkpt>
      <trkpt lat="-35.255385" lon="149.130854">
        <ele>567.88</ele>
      </trkpt>
      <trkpt lat="-35.255432" lon="149.130884">
        <ele>567.72</ele>
      </trkpt>
      <trkpt lat="-35.255462" lon="149.130937">
        <ele>567.83</ele>
      </trkpt>
      <trkpt lat="-35.255497" lon="149.130893">
        <ele>567.54</ele>
      </trkpt>
      <trkpt lat="-35.255462" lon="149.130937">
        <ele>567.83</ele>
      </trkpt>
      <trkpt lat="-35.255593" lon="149.131259">
        <ele>567.99</ele>
      </trkpt>
      <trkpt lat="-35.255606" lon="149.1313">
        <ele>567.91</ele>
      </trkpt>
      <trkpt lat="-35.255623" lon="149.131445">
        <ele>568.63</ele>
      </trkpt>
      <trkpt lat="-35.255676" lon="149.131574">
        <ele>568.76</ele>
      </trkpt>
      <trkpt lat="-35.255631" lon="149.131633">
        <ele>568.98</ele>
      </trkpt>
      <trkpt lat="-35.256418" lon="149.131504">
        <ele>569.88</ele>
      </trkpt>
      <trkpt lat="-35.25834" lon="149.131191">
        <ele>568.37</ele>
      </trkpt>
      <trkpt lat="-35.258448" lon="149.131131">
        <ele>568.35</ele>
      </trkpt>
      <trkpt lat="-35.258533" lon="149.131058">
        <ele>568.57</ele>
      </trkpt>
      <trkpt lat="-35.258593" lon="149.131106">
        <ele>568.88</ele>
      </trkpt>
      <trkpt lat="-35.258742" lon="149.130924">
        <ele>568.35</ele>
      </trkpt>
      <trkpt lat="-35.258866" lon="149.130872">
        <ele>568.67</ele>
      </trkpt>
      <trkpt lat="-35.258982" lon="149.130846">
        <ele>569</ele>
      </trkpt>
      <trkpt lat="-35.259058" lon="149.130849">
        <ele>569</ele>
      </trkpt>
      <trkpt lat="-35.259146" lon="149.130877">
        <ele>568.86</ele>
      </trkpt>
      <trkpt lat="-35.259241" lon="149.130921">
        <ele>568.81</ele>
      </trkpt>
      <trkpt lat="-35.259344" lon="149.130939">
        <ele>568.9</ele>
      </trkpt>
      <trkpt lat="-35.260186" lon="149.130806">
        <ele>568.14</ele>
      </trkpt>
      <trkpt lat="-35.260218" lon="149.130813">
        <ele>568.17</ele>
      </trkpt>
      <trkpt lat="-35.260244" lon="149.130765">
        <ele>568</ele>
      </trkpt>
      <trkpt lat="-35.26025" lon="149.130734">
        <ele>568</ele>
      </trkpt>
      <trkpt lat="-35.260313" lon="149.130736">
        <ele>568</ele>
      </trkpt>
      <trkpt lat="-35.260474" lon="149.130711">
        <ele>568</ele>
      </trkpt>
      <trkpt lat="-35.260488" lon="149.13075">
        <ele>568</ele>
      </trkpt>
      <trkpt lat="-35.2611" lon="149.130649">
        <ele>568.05</ele>
      </trkpt>
      <trkpt lat="-35.261204" lon="149.130616">
        <ele>568.03</ele>
      </trkpt>
      <trkpt lat="-35.261285" lon="149.130577">
        <ele>568</ele>
      </trkpt>
      <trkpt lat="-35.261402" lon="149.130492">
        <ele>568</ele>
      </trkpt>
    </trkseg>
  </trk>
</gpx>
