<?xml version="1.0" encoding="UTF-8"?>
<gpx creator="https://gpx.studio" version="1.1" schemaLocation="http://www.topografix.com/GPX/1/1 http://www.topografix.com/GPX/1/1/gpx.xsd http://www.garmin.com/xmlschemas/GpxExtensions/v3 http://www.garmin.com/xmlschemas/GpxExtensionsv3.xsd http://www.garmin.com/xmlschemas/TrackPointExtension/v1 http://www.garmin.com/xmlschemas/TrackPointExtensionv1.xsd http://www.garmin.com/xmlschemas/PowerExtension/v1 http://www.garmin.com/xmlschemas/PowerExtensionv1.xsd http://www.topografix.com/GPX/gpx_style/0/2 http://www.topografix.com/GPX/gpx_style/0/2/gpx_style.xsd" xmlns="http://www.topografix.com/GPX/1/1" xmlns:xsi="http://www.w3.org/2001/XMLSchema-instance" xsi:schemaLocation="http://www.topografix.com/GPX/1/1 http://www.topografix.com/GPX/1/1/gpx.xsd http://www.garmin.com/xmlschemas/GpxExtensions/v3 http://www.garmin.com/xmlschemas/GpxExtensionsv3.xsd http://www.garmin.com/xmlschemas/TrackPointExtension/v1 http://www.garmin.com/xmlschemas/TrackPointExtensionv1.xsd http://www.garmin.com/xmlschemas/PowerExtension/v1 http://www.garmin.com/xmlschemas/PowerExtensionv1.xsd http://www.topografix.com/GPX/gpx_style/0/2 http://www.topografix.com/GPX/gpx_style/0/2/gpx_style.xsd" xmlns:gpxtpx="http://www.garmin.com/xmlschemas/TrackPointExtension/v1" xmlns:gpxx="http://www.garmin.com/xmlschemas/GpxExtensions/v3" xmlns:gpxpx="http://www.garmin.com/xmlschemas/PowerExtension/v1" xmlns:gpx_style="http://www.topografix.com/GPX/gpx_style/0/2">
  <metadata>
    <name>261001 - Ainslie, Dickson loop</name>
    <author>
      <name>gpx.studio</name>
      <link href="https://gpx.studio"/>
    </author>
  </metadata>
  <trk>
    <name>261001 - Ainslie, Dickson loop</name>
    <extensions>
      <gpx_style:line>
        <gpx_style:color>ff410d</gpx_style:color>
      </gpx_style:line>
    </extensions>
    <trkseg>
      <trkpt lat="-35.261729" lon="149.131621">
        <ele>569.96</ele>
      </trkpt>
      <trkpt lat="-35.260813" lon="149.131771">
        <ele>569.75</ele>
      </trkpt>
      <trkpt lat="-35.260762" lon="149.13178">
        <ele>569.8</ele>
      </trkpt>
      <trkpt lat="-35.260702" lon="149.131758">
        <ele>569.67</ele>
      </trkpt>
      <trkpt lat="-35.260652" lon="149.131723">
        <ele>569.46</ele>
      </trkpt>
      <trkpt lat="-35.260646" lon="149.131732">
        <ele>569.52</ele>
      </trkpt>
      <trkpt lat="-35.26062" lon="149.131776">
        <ele>569.77</ele>
      </trkpt>
      <trkpt lat="-35.260605" lon="149.131806">
        <ele>569.94</ele>
      </trkpt>
      <trkpt lat="-35.260353" lon="149.131848">
        <ele>570</ele>
      </trkpt>
      <trkpt lat="-35.260346" lon="149.132091">
        <ele>570.6</ele>
      </trkpt>
      <trkpt lat="-35.260312" lon="149.132098">
        <ele>570.65</ele>
      </trkpt>
      <trkpt lat="-35.260322" lon="149.132217">
        <ele>571.34</ele>
      </trkpt>
      <trkpt lat="-35.260369" lon="149.132216">
        <ele>571.33</ele>
      </trkpt>
      <trkpt lat="-35.260442" lon="149.132449">
        <ele>571.83</ele>
      </trkpt>
      <trkpt lat="-35.260419" lon="149.132544">
        <ele>572.15</ele>
      </trkpt>
      <trkpt lat="-35.26044" lon="149.132583">
        <ele>572.22</ele>
      </trkpt>
      <trkpt lat="-35.26045" lon="149.132625">
        <ele>572.29</ele>
      </trkpt>
      <trkpt lat="-35.260494" lon="149.132979">
        <ele>573.87</ele>
      </trkpt>
      <trkpt lat="-35.260442" lon="149.133061">
        <ele>574.47</ele>
      </trkpt>
      <trkpt lat="-35.260476" lon="149.133366">
        <ele>575</ele>
      </trkpt>
      <trkpt lat="-35.26054" lon="149.133423">
        <ele>575</ele>
      </trkpt>
      <trkpt lat="-35.260641" lon="149.134426">
        <ele>578.22</ele>
      </trkpt>
      <trkpt lat="-35.260886" lon="149.134383">
        <ele>577.95</ele>
      </trkpt>
      <trkpt lat="-35.260895" lon="149.134488">
        <ele>578.13</ele>
      </trkpt>
      <trkpt lat="-35.260942" lon="149.134892">
        <ele>578.9</ele>
      </trkpt>
      <trkpt lat="-35.261085" lon="149.13611">
        <ele>575.89</ele>
      </trkpt>
      <trkpt lat="-35.261023" lon="149.136195">
        <ele>575.69</ele>
      </trkpt>
      <trkpt lat="-35.261097" lon="149.136407">
        <ele>575</ele>
      </trkpt>
      <trkpt lat="-35.261105" lon="149.136462">
        <ele>575</ele>
      </trkpt>
      <trkpt lat="-35.261192" lon="149.137149">
        <ele>575</ele>
      </trkpt>
      <trkpt lat="-35.261282" lon="149.138002">
        <ele>575</ele>
      </trkpt>
      <trkpt lat="-35.261196" lon="149.138157">
        <ele>575.79</ele>
      </trkpt>
      <trkpt lat="-35.261225" lon="149.138404">
        <ele>576</ele>
      </trkpt>
      <trkpt lat="-35.261331" lon="149.138497">
        <ele>576</ele>
      </trkpt>
      <trkpt lat="-35.261385" lon="149.139045">
        <ele>576</ele>
      </trkpt>
      <trkpt lat="-35.261426" lon="149.13933">
        <ele>576.32</ele>
      </trkpt>
      <trkpt lat="-35.261565" lon="149.139308">
        <ele>576</ele>
      </trkpt>
      <trkpt lat="-35.261705" lon="149.14055">
        <ele>578</ele>
      </trkpt>
      <trkpt lat="-35.261563" lon="149.140578">
        <ele>578</ele>
      </trkpt>
      <trkpt lat="-35.261681" lon="149.141656">
        <ele>580.22</ele>
      </trkpt>
      <trkpt lat="-35.261753" lon="149.1418">
        <ele>581</ele>
      </trkpt>
      <trkpt lat="-35.261797" lon="149.141835">
        <ele>581</ele>
      </trkpt>
      <trkpt lat="-35.261837" lon="149.141854">
        <ele>581</ele>
      </trkpt>
      <trkpt lat="-35.261972" lon="149.143074">
        <ele>583.43</ele>
      </trkpt>
      <trkpt lat="-35.261988" lon="149.143071">
        <ele>583.54</ele>
      </trkpt>
      <trkpt lat="-35.262002" lon="149.143201">
        <ele>583.71</ele>
      </trkpt>
      <trkpt lat="-35.262006" lon="149.143279">
        <ele>583.89</ele>
      </trkpt>
      <trkpt lat="-35.262001" lon="149.143298">
        <ele>583.91</ele>
      </trkpt>
      <trkpt lat="-35.26245" lon="149.144212">
        <ele>585.85</ele>
      </trkpt>
      <trkpt lat="-35.262521" lon="149.144452">
        <ele>586.16</ele>
      </trkpt>
      <trkpt lat="-35.262548" lon="149.144681">
        <ele>586.91</ele>
      </trkpt>
      <trkpt lat="-35.262561" lon="149.144717">
        <ele>587</ele>
      </trkpt>
      <trkpt lat="-35.262605" lon="149.144747">
        <ele>587</ele>
      </trkpt>
      <trkpt lat="-35.262621" lon="149.144772">
        <ele>587.02</ele>
      </trkpt>
      <trkpt lat="-35.262662" lon="149.145151">
        <ele>588</ele>
      </trkpt>
      <trkpt lat="-35.262553" lon="149.14517">
        <ele>588</ele>
      </trkpt>
      <trkpt lat="-35.262606" lon="149.145239">
        <ele>588</ele>
      </trkpt>
      <trkpt lat="-35.262642" lon="149.145604">
        <ele>589</ele>
      </trkpt>
      <trkpt lat="-35.26267" lon="149.145656">
        <ele>589</ele>
      </trkpt>
      <trkpt lat="-35.262688" lon="149.145799">
        <ele>589.16</ele>
      </trkpt>
      <trkpt lat="-35.262468" lon="149.145834">
        <ele>589</ele>
      </trkpt>
      <trkpt lat="-35.262473" lon="149.145898">
        <ele>589</ele>
      </trkpt>
      <trkpt lat="-35.262413" lon="149.146007">
        <ele>589.52</ele>
      </trkpt>
      <trkpt lat="-35.262297" lon="149.146026">
        <ele>589.46</ele>
      </trkpt>
      <trkpt lat="-35.262411" lon="149.147052">
        <ele>594.59</ele>
      </trkpt>
      <trkpt lat="-35.262286" lon="149.147072">
        <ele>594.71</ele>
      </trkpt>
      <trkpt lat="-35.262302" lon="149.14721">
        <ele>594.99</ele>
      </trkpt>
      <trkpt lat="-35.262303" lon="149.147214">
        <ele>595</ele>
      </trkpt>
      <trkpt lat="-35.262159" lon="149.147237">
        <ele>594.92</ele>
      </trkpt>
      <trkpt lat="-35.262177" lon="149.147405">
        <ele>595.57</ele>
      </trkpt>
      <trkpt lat="-35.262235" lon="149.147582">
        <ele>596.67</ele>
      </trkpt>
      <trkpt lat="-35.262282" lon="149.147683">
        <ele>597</ele>
      </trkpt>
      <trkpt lat="-35.262313" lon="149.147822">
        <ele>597.07</ele>
      </trkpt>
      <trkpt lat="-35.262323" lon="149.147902">
        <ele>597.53</ele>
      </trkpt>
      <trkpt lat="-35.262336" lon="149.148235">
        <ele>598.47</ele>
      </trkpt>
      <trkpt lat="-35.262383" lon="149.148803">
        <ele>601.13</ele>
      </trkpt>
      <trkpt lat="-35.26241" lon="149.149026">
        <ele>601.61</ele>
      </trkpt>
      <trkpt lat="-35.262436" lon="149.149161">
        <ele>603.6302626804498</ele>
      </trkpt>
      <trkpt lat="-35.26245059975523" lon="149.14955169963923">
        <ele>605.1763515523102</ele>
      </trkpt>
      <trkpt lat="-35.26252257738147" lon="149.1500953049602">
        <ele>608.9606439922645</ele>
      </trkpt>
      <trkpt lat="-35.2625945550077" lon="149.15063891028115">
        <ele>613.010340886545</ele>
      </trkpt>
      <trkpt lat="-35.26263" lon="149.15088">
        <ele>614.09</ele>
      </trkpt>
      <trkpt lat="-35.262345" lon="149.151046">
        <ele>614</ele>
      </trkpt>
      <trkpt lat="-35.262054" lon="149.151239">
        <ele>613.94</ele>
      </trkpt>
      <trkpt lat="-35.261868" lon="149.151376">
        <ele>613.91</ele>
      </trkpt>
      <trkpt lat="-35.261725" lon="149.15152">
        <ele>613.86</ele>
      </trkpt>
      <trkpt lat="-35.26164" lon="149.15162">
        <ele>614.02</ele>
      </trkpt>
      <trkpt lat="-35.261572" lon="149.151773">
        <ele>613.6</ele>
      </trkpt>
      <trkpt lat="-35.261414" lon="149.152186">
        <ele>613.69</ele>
      </trkpt>
      <trkpt lat="-35.261254" lon="149.152446">
        <ele>613.96</ele>
      </trkpt>
      <trkpt lat="-35.261158" lon="149.152644">
        <ele>613.63</ele>
      </trkpt>
      <trkpt lat="-35.261099" lon="149.152819">
        <ele>613.3</ele>
      </trkpt>
      <trkpt lat="-35.261033" lon="149.153068">
        <ele>613.74</ele>
      </trkpt>
      <trkpt lat="-35.260963" lon="149.153293">
        <ele>613.91</ele>
      </trkpt>
      <trkpt lat="-35.260875" lon="149.153516">
        <ele>613.69</ele>
      </trkpt>
      <trkpt lat="-35.260648" lon="149.153285">
        <ele>611.01</ele>
      </trkpt>
      <trkpt lat="-35.260371" lon="149.153139">
        <ele>609.03</ele>
      </trkpt>
      <trkpt lat="-35.260284" lon="149.153115">
        <ele>608.91</ele>
      </trkpt>
      <trkpt lat="-35.260234" lon="149.153053">
        <ele>608.51</ele>
      </trkpt>
      <trkpt lat="-35.260161" lon="149.152995">
        <ele>608.08</ele>
      </trkpt>
      <trkpt lat="-35.260154" lon="149.152967">
        <ele>607.99</ele>
      </trkpt>
      <trkpt lat="-35.260146" lon="149.152935">
        <ele>607.88</ele>
      </trkpt>
      <trkpt lat="-35.260103" lon="149.152911">
        <ele>607.69</ele>
      </trkpt>
      <trkpt lat="-35.260051" lon="149.152908">
        <ele>607.48</ele>
      </trkpt>
      <trkpt lat="-35.259984" lon="149.152802">
        <ele>607.01</ele>
      </trkpt>
      <trkpt lat="-35.259951" lon="149.152835">
        <ele>607.01</ele>
      </trkpt>
      <trkpt lat="-35.259871" lon="149.152717">
        <ele>606.25</ele>
      </trkpt>
      <trkpt lat="-35.259839" lon="149.152637">
        <ele>606.01</ele>
      </trkpt>
      <trkpt lat="-35.256584" lon="149.15053">
        <ele>595.05</ele>
      </trkpt>
      <trkpt lat="-35.256591" lon="149.150494">
        <ele>595.07</ele>
      </trkpt>
      <trkpt lat="-35.256581" lon="149.150441">
        <ele>595.01</ele>
      </trkpt>
      <trkpt lat="-35.256549" lon="149.150403">
        <ele>595</ele>
      </trkpt>
      <trkpt lat="-35.256509" lon="149.150392">
        <ele>595</ele>
      </trkpt>
      <trkpt lat="-35.256482" lon="149.150399">
        <ele>595</ele>
      </trkpt>
      <trkpt lat="-35.256459" lon="149.150417">
        <ele>595</ele>
      </trkpt>
      <trkpt lat="-35.256442" lon="149.150443">
        <ele>595</ele>
      </trkpt>
      <trkpt lat="-35.253665" lon="149.148634">
        <ele>586</ele>
      </trkpt>
      <trkpt lat="-35.25359" lon="149.148605">
        <ele>585.91</ele>
      </trkpt>
      <trkpt lat="-35.253572" lon="149.148646">
        <ele>585.95</ele>
      </trkpt>
      <trkpt lat="-35.253526" lon="149.148642">
        <ele>585.88</ele>
      </trkpt>
      <trkpt lat="-35.253507" lon="149.14865">
        <ele>585.9</ele>
      </trkpt>
      <trkpt lat="-35.25347" lon="149.148679">
        <ele>586</ele>
      </trkpt>
      <trkpt lat="-35.253447" lon="149.148717">
        <ele>586</ele>
      </trkpt>
      <trkpt lat="-35.253292" lon="149.148618">
        <ele>585.43</ele>
      </trkpt>
      <trkpt lat="-35.253218" lon="149.148608">
        <ele>585.06</ele>
      </trkpt>
      <trkpt lat="-35.253069" lon="149.148555">
        <ele>585</ele>
      </trkpt>
      <trkpt lat="-35.252958" lon="149.148528">
        <ele>585</ele>
      </trkpt>
      <trkpt lat="-35.252702" lon="149.148414">
        <ele>585</ele>
      </trkpt>
      <trkpt lat="-35.252595" lon="149.148383">
        <ele>585</ele>
      </trkpt>
      <trkpt lat="-35.252454" lon="149.148366">
        <ele>585.05</ele>
      </trkpt>
      <trkpt lat="-35.252387" lon="149.148353">
        <ele>585.13</ele>
      </trkpt>
      <trkpt lat="-35.252312" lon="149.148507">
        <ele>585.66</ele>
      </trkpt>
      <trkpt lat="-35.252257" lon="149.148203">
        <ele>585.53</ele>
      </trkpt>
      <trkpt lat="-35.252237" lon="149.148127">
        <ele>585.72</ele>
      </trkpt>
      <trkpt lat="-35.252204" lon="149.148047">
        <ele>585.28</ele>
      </trkpt>
      <trkpt lat="-35.25216" lon="149.147977">
        <ele>584.96</ele>
      </trkpt>
      <trkpt lat="-35.252112" lon="149.147923">
        <ele>584.65</ele>
      </trkpt>
      <trkpt lat="-35.251877" lon="149.147767">
        <ele>584.75</ele>
      </trkpt>
      <trkpt lat="-35.251645" lon="149.14781">
        <ele>584</ele>
      </trkpt>
      <trkpt lat="-35.251502" lon="149.147732">
        <ele>584</ele>
      </trkpt>
      <trkpt lat="-35.251369" lon="149.147793">
        <ele>584.06</ele>
      </trkpt>
      <trkpt lat="-35.251212" lon="149.147841">
        <ele>584.82</ele>
      </trkpt>
      <trkpt lat="-35.251181" lon="149.147832">
        <ele>584.88</ele>
      </trkpt>
      <trkpt lat="-35.251094" lon="149.14778">
        <ele>584.67</ele>
      </trkpt>
      <trkpt lat="-35.250818" lon="149.147616">
        <ele>584</ele>
      </trkpt>
      <trkpt lat="-35.25078" lon="149.147608">
        <ele>584</ele>
      </trkpt>
      <trkpt lat="-35.25074" lon="149.147613">
        <ele>584</ele>
      </trkpt>
      <trkpt lat="-35.250635" lon="149.14765">
        <ele>584</ele>
      </trkpt>
      <trkpt lat="-35.250627" lon="149.147511">
        <ele>583.74</ele>
      </trkpt>
      <trkpt lat="-35.250597" lon="149.147364">
        <ele>583.18</ele>
      </trkpt>
      <trkpt lat="-35.250583" lon="149.147255">
        <ele>582.85</ele>
      </trkpt>
      <trkpt lat="-35.250618" lon="149.146862">
        <ele>582.59</ele>
      </trkpt>
      <trkpt lat="-35.250663" lon="149.145365">
        <ele>580.94</ele>
      </trkpt>
      <trkpt lat="-35.250751" lon="149.142495">
        <ele>578.05</ele>
      </trkpt>
      <trkpt lat="-35.250784" lon="149.141955">
        <ele>577.74</ele>
      </trkpt>
      <trkpt lat="-35.250814" lon="149.14181">
        <ele>577.11</ele>
      </trkpt>
      <trkpt lat="-35.251128" lon="149.140839">
        <ele>576.22</ele>
      </trkpt>
      <trkpt lat="-35.251153" lon="149.140778">
        <ele>576.4</ele>
      </trkpt>
      <trkpt lat="-35.251281" lon="149.140571">
        <ele>576.31</ele>
      </trkpt>
      <trkpt lat="-35.251317" lon="149.140448">
        <ele>576.57</ele>
      </trkpt>
      <trkpt lat="-35.25135" lon="149.140391">
        <ele>576.8</ele>
      </trkpt>
      <trkpt lat="-35.251348" lon="149.140307">
        <ele>576.78</ele>
      </trkpt>
      <trkpt lat="-35.25131" lon="149.140262">
        <ele>576.51</ele>
      </trkpt>
      <trkpt lat="-35.251265" lon="149.140144">
        <ele>576.41</ele>
      </trkpt>
      <trkpt lat="-35.251207" lon="149.14017">
        <ele>576.67</ele>
      </trkpt>
      <trkpt lat="-35.251177" lon="149.140168">
        <ele>576.68</ele>
      </trkpt>
      <trkpt lat="-35.251138" lon="149.14013">
        <ele>576.71</ele>
      </trkpt>
      <trkpt lat="-35.251193" lon="149.14008">
        <ele>576.32</ele>
      </trkpt>
      <trkpt lat="-35.251656" lon="149.138601">
        <ele>575.02</ele>
      </trkpt>
      <trkpt lat="-35.251689" lon="149.138529">
        <ele>574.99</ele>
      </trkpt>
      <trkpt lat="-35.251731" lon="149.138464">
        <ele>575.17</ele>
      </trkpt>
      <trkpt lat="-35.251781" lon="149.138409">
        <ele>575.08</ele>
      </trkpt>
      <trkpt lat="-35.251838" lon="149.138364">
        <ele>574.98</ele>
      </trkpt>
      <trkpt lat="-35.2519" lon="149.138331">
        <ele>575.03</ele>
      </trkpt>
      <trkpt lat="-35.251976" lon="149.138244">
        <ele>574.9</ele>
      </trkpt>
      <trkpt lat="-35.252039" lon="149.138145">
        <ele>574.92</ele>
      </trkpt>
      <trkpt lat="-35.25214" lon="149.137916">
        <ele>574</ele>
      </trkpt>
      <trkpt lat="-35.252163" lon="149.137792">
        <ele>574</ele>
      </trkpt>
      <trkpt lat="-35.252148" lon="149.137645">
        <ele>573.95</ele>
      </trkpt>
      <trkpt lat="-35.25198" lon="149.136384">
        <ele>573.43</ele>
      </trkpt>
      <trkpt lat="-35.251968" lon="149.136209">
        <ele>573.59</ele>
      </trkpt>
      <trkpt lat="-35.251978" lon="149.136033">
        <ele>573.11</ele>
      </trkpt>
      <trkpt lat="-35.252056" lon="149.135635">
        <ele>573.17</ele>
      </trkpt>
      <trkpt lat="-35.25211" lon="149.135428">
        <ele>572.79</ele>
      </trkpt>
      <trkpt lat="-35.252154" lon="149.135324">
        <ele>572.47</ele>
      </trkpt>
      <trkpt lat="-35.252223" lon="149.135231">
        <ele>572.14</ele>
      </trkpt>
      <trkpt lat="-35.252234" lon="149.135008">
        <ele>572.91</ele>
      </trkpt>
      <trkpt lat="-35.252258" lon="149.134951">
        <ele>572.73</ele>
      </trkpt>
      <trkpt lat="-35.25229" lon="149.134902">
        <ele>572.51</ele>
      </trkpt>
      <trkpt lat="-35.252742" lon="149.13463">
        <ele>571.18</ele>
      </trkpt>
      <trkpt lat="-35.252798" lon="149.134575">
        <ele>570.9</ele>
      </trkpt>
      <trkpt lat="-35.252912" lon="149.13444">
        <ele>570.76</ele>
      </trkpt>
      <trkpt lat="-35.253141" lon="149.133896">
        <ele>570.4</ele>
      </trkpt>
      <trkpt lat="-35.253182" lon="149.133763">
        <ele>570.72</ele>
      </trkpt>
      <trkpt lat="-35.253229" lon="149.133456">
        <ele>571.82</ele>
      </trkpt>
      <trkpt lat="-35.253194" lon="149.133012">
        <ele>571.11</ele>
      </trkpt>
      <trkpt lat="-35.253233" lon="149.13297">
        <ele>571.22</ele>
      </trkpt>
      <trkpt lat="-35.253412" lon="149.132889">
        <ele>570.64</ele>
      </trkpt>
      <trkpt lat="-35.253521" lon="149.13273">
        <ele>570.42</ele>
      </trkpt>
      <trkpt lat="-35.253942" lon="149.132262">
        <ele>569.75</ele>
      </trkpt>
      <trkpt lat="-35.253972" lon="149.132202">
        <ele>569.53</ele>
      </trkpt>
      <trkpt lat="-35.253977" lon="149.132112">
        <ele>569.63</ele>
      </trkpt>
      <trkpt lat="-35.254018" lon="149.132036">
        <ele>569.78</ele>
      </trkpt>
      <trkpt lat="-35.254103" lon="149.131928">
        <ele>569.4</ele>
      </trkpt>
      <trkpt lat="-35.254277" lon="149.131897">
        <ele>569</ele>
      </trkpt>
      <trkpt lat="-35.25437" lon="149.131937">
        <ele>569.22</ele>
      </trkpt>
      <trkpt lat="-35.254598" lon="149.131902">
        <ele>569.51</ele>
      </trkpt>
      <trkpt lat="-35.254626" lon="149.131796">
        <ele>569.11</ele>
      </trkpt>
      <trkpt lat="-35.255631" lon="149.131633">
        <ele>568.98</ele>
      </trkpt>
      <trkpt lat="-35.255676" lon="149.131574">
        <ele>568.76</ele>
      </trkpt>
      <trkpt lat="-35.255623" lon="149.131445">
        <ele>568.63</ele>
      </trkpt>
      <trkpt lat="-35.255606" lon="149.1313">
        <ele>567.91</ele>
      </trkpt>
      <trkpt lat="-35.255593" lon="149.131259">
        <ele>567.99</ele>
      </trkpt>
      <trkpt lat="-35.255462" lon="149.130937">
        <ele>567.83</ele>
      </trkpt>
      <trkpt lat="-35.255667" lon="149.130672">
        <ele>567.54</ele>
      </trkpt>
      <trkpt lat="-35.255772" lon="149.130452">
        <ele>568.02</ele>
      </trkpt>
      <trkpt lat="-35.255883" lon="149.130289">
        <ele>568.01</ele>
      </trkpt>
      <trkpt lat="-35.256" lon="149.130172">
        <ele>567.4</ele>
      </trkpt>
      <trkpt lat="-35.25622" lon="149.13003">
        <ele>567.6</ele>
      </trkpt>
      <trkpt lat="-35.256482" lon="149.129826">
        <ele>567.48</ele>
      </trkpt>
      <trkpt lat="-35.256707" lon="149.129563">
        <ele>567.98</ele>
      </trkpt>
      <trkpt lat="-35.256833" lon="149.129379">
        <ele>567.83</ele>
      </trkpt>
      <trkpt lat="-35.256886" lon="149.129272">
        <ele>568</ele>
      </trkpt>
      <trkpt lat="-35.256986" lon="149.129032">
        <ele>568</ele>
      </trkpt>
      <trkpt lat="-35.257049" lon="149.128915">
        <ele>568</ele>
      </trkpt>
      <trkpt lat="-35.257203" lon="149.129044">
        <ele>568</ele>
      </trkpt>
      <trkpt lat="-35.25736" lon="149.129196">
        <ele>568</ele>
      </trkpt>
      <trkpt lat="-35.257472" lon="149.129333">
        <ele>568</ele>
      </trkpt>
      <trkpt lat="-35.258895" lon="149.130683">
        <ele>568.22</ele>
      </trkpt>
      <trkpt lat="-35.259146" lon="149.130877">
        <ele>568.86</ele>
      </trkpt>
      <trkpt lat="-35.259241" lon="149.130921">
        <ele>568.81</ele>
      </trkpt>
      <trkpt lat="-35.259344" lon="149.130939">
        <ele>568.9</ele>
      </trkpt>
      <trkpt lat="-35.260186" lon="149.130806">
        <ele>568.14</ele>
      </trkpt>
      <trkpt lat="-35.260218" lon="149.130813">
        <ele>568.17</ele>
      </trkpt>
      <trkpt lat="-35.260244" lon="149.130765">
        <ele>568</ele>
      </trkpt>
      <trkpt lat="-35.26025" lon="149.130734">
        <ele>568</ele>
      </trkpt>
      <trkpt lat="-35.260313" lon="149.130736">
        <ele>568</ele>
      </trkpt>
      <trkpt lat="-35.260474" lon="149.130711">
        <ele>568</ele>
      </trkpt>
      <trkpt lat="-35.260488" lon="149.13075">
        <ele>568</ele>
      </trkpt>
      <trkpt lat="-35.2611" lon="149.130649">
        <ele>568.05</ele>
      </trkpt>
      <trkpt lat="-35.261075" lon="149.130523">
        <ele>568</ele>
      </trkpt>
      <trkpt lat="-35.261227" lon="149.130479">
        <ele>568</ele>
      </trkpt>
    </trkseg>
  </trk>
</gpx>
